{
  "type": "FeatureCollection",
  "features": [
    {
      "type": "Feature",
      "properties": {
        "norad_id": 44333,
        "name": "AT&T T-16",
        "group": "intelsat",
        "lat": 0.005826248783589901,
        "lon": -167.22763946268682,
        "alt_km": 35782.851122391374,
        "timestamp": "2025-12-16T13:52:37.197647+00:00",
        "meta_object_name": "AT&T T-16",
        "meta_object_id": "2019-034A",
        "meta_epoch": "2025-12-15T09:29:00.650688",
        "meta_mean_motion": 1.00274124,
        "meta_eccentricity": 8.334e-05,
        "meta_inclination": 0.024,
        "meta_ra_of_asc_node": 67.0512,
        "meta_arg_of_pericenter": 83.7353,
        "meta_mean_anomaly": 334.9128,
        "meta_ephemeris_type": 0,
        "meta_classification_type": "U",
        "meta_norad_cat_id": 44333,
        "meta_element_set_no": 999,
        "meta_rev_at_epoch": 2379,
        "meta_bstar": 0,
        "meta_mean_motion_dot": -9.4e-07,
        "meta_mean_motion_ddot": 0,
        "tle_line1": "1 44333U 19034A   25349.39514642 -.00000094  00000+0  00000+0 0  9993",
        "tle_line2": "2 44333   0.0240  67.0512 0000833  83.7353 334.9128  1.00274124 23791"
      },
      "geometry": {
        "type": "Point",
        "coordinates": [
          -167.22763946268682,
          0.005826248783589901
        ]
      }
    },
    {
      "type": "Feature",
      "properties": {
        "norad_id": 44476,
        "name": "INTELSAT 39 (IS-39)",
        "group": "intelsat",
        "lat": 0.01838201571060225,
        "lon": -4.447412684449281,
        "alt_km": 35790.618729270886,
        "timestamp": "2025-12-16T13:52:37.197659+00:00",
        "meta_object_name": "INTELSAT 39 (IS-39)",
        "meta_object_id": "2019-049B",
        "meta_epoch": "2025-12-15T22:14:37.836384",
        "meta_mean_motion": 1.00272405,
        "meta_eccentricity": 0.00013119,
        "meta_inclination": 0.0175,
        "meta_ra_of_asc_node": 322.8511,
        "meta_arg_of_pericenter": 182.5588,
        "meta_mean_anomaly": 335.0211,
        "meta_ephemeris_type": 0,
        "meta_classification_type": "U",
        "meta_norad_cat_id": 44476,
        "meta_element_set_no": 999,
        "meta_rev_at_epoch": 2329,
        "meta_bstar": 0,
        "meta_mean_motion_dot": 5.6e-07,
        "meta_mean_motion_ddot": 0,
        "tle_line1": "1 44476U 19049B   25349.92682681  .00000056  00000+0  00000+0 0  9992",
        "tle_line2": "2 44476   0.0175 322.8511 0001311 182.5588 335.0211  1.00272405 23297"
      },
      "geometry": {
        "type": "Point",
        "coordinates": [
          -4.447412684449281,
          0.01838201571060225
        ]
      }
    },
    {
      "type": "Feature",
      "properties": {
        "norad_id": 46114,
        "name": "GALAXY 30 (G-30)",
        "group": "intelsat",
        "lat": 0.004022426235978373,
        "lon": 168.58912132446397,
        "alt_km": 35786.66795804163,
        "timestamp": "2025-12-16T13:52:37.197670+00:00",
        "meta_object_name": "GALAXY 30 (G-30)",
        "meta_object_id": "2020-056C",
        "meta_epoch": "2025-12-15T21:20:57.976224",
        "meta_mean_motion": 1.00271624,
        "meta_eccentricity": 0.00020781,
        "meta_inclination": 0.0181,
        "meta_ra_of_asc_node": 4.1804,
        "meta_arg_of_pericenter": 258.2613,
        "meta_mean_anomaly": 17.591,
        "meta_ephemeris_type": 0,
        "meta_classification_type": "U",
        "meta_norad_cat_id": 46114,
        "meta_element_set_no": 999,
        "meta_rev_at_epoch": 1945,
        "meta_bstar": 0,
        "meta_mean_motion_dot": 5.9e-07,
        "meta_mean_motion_ddot": 0,
        "tle_line1": "1 46114U 20056C   25349.88955991  .00000059  00000+0  00000+0 0  9998",
        "tle_line2": "2 46114   0.0181   4.1804 0002078 258.2613  17.5910  1.00271624 19454"
      },
      "geometry": {
        "type": "Point",
        "coordinates": [
          168.58912132446397,
          0.004022426235978373
        ]
      }
    },
    {
      "type": "Feature",
      "properties": {
        "norad_id": 54026,
        "name": "GALAXY 33 (G-33)",
        "group": "intelsat",
        "lat": 0.00021146511915423767,
        "lon": 160.5987868250929,
        "alt_km": 35786.77611919936,
        "timestamp": "2025-12-16T13:52:37.197682+00:00",
        "meta_object_name": "GALAXY 33 (G-33)",
        "meta_object_id": "2022-128A",
        "meta_epoch": "2025-12-15T12:45:19.351872",
        "meta_mean_motion": 1.00272882,
        "meta_eccentricity": 0.00018072,
        "meta_inclination": 0.0131,
        "meta_ra_of_asc_node": 342.9246,
        "meta_arg_of_pericenter": 275.9027,
        "meta_mean_anomaly": 243.9429,
        "meta_ephemeris_type": 0,
        "meta_classification_type": "U",
        "meta_norad_cat_id": 54026,
        "meta_element_set_no": 999,
        "meta_rev_at_epoch": 1190,
        "meta_bstar": 0,
        "meta_mean_motion_dot": 1e-06,
        "meta_mean_motion_ddot": 0,
        "tle_line1": "1 54026U 22128A   25349.53147398  .00000100  00000+0  00000+0 0  9994",
        "tle_line2": "2 54026   0.0131 342.9246 0001807 275.9027 243.9429  1.00272882 11906"
      },
      "geometry": {
        "type": "Point",
        "coordinates": [
          160.5987868250929,
          0.00021146511915423767
        ]
      }
    },
    {
      "type": "Feature",
      "properties": {
        "norad_id": 54027,
        "name": "GALAXY 34 (G-34)",
        "group": "intelsat",
        "lat": -0.009645861590633069,
        "lon": 164.66480140325612,
        "alt_km": 35786.467340636365,
        "timestamp": "2025-12-16T13:52:37.197693+00:00",
        "meta_object_name": "GALAXY 34 (G-34)",
        "meta_object_id": "2022-128B",
        "meta_epoch": "2025-12-15T15:38:33.689184",
        "meta_mean_motion": 1.00271096,
        "meta_eccentricity": 0.0001421,
        "meta_inclination": 0.0249,
        "meta_ra_of_asc_node": 330.7598,
        "meta_arg_of_pericenter": 286.3955,
        "meta_mean_anomaly": 293.1117,
        "meta_ephemeris_type": 0,
        "meta_classification_type": "U",
        "meta_norad_cat_id": 54027,
        "meta_element_set_no": 999,
        "meta_rev_at_epoch": 1207,
        "meta_bstar": 0,
        "meta_mean_motion_dot": 0,
        "meta_mean_motion_ddot": 0,
        "tle_line1": "1 54027U 22128B   25349.65177881  .00000000  00000+0  00000+0 0  9997",
        "tle_line2": "2 54027   0.0249 330.7598 0001421 286.3955 293.1117  1.00271096 12076"
      },
      "geometry": {
        "type": "Point",
        "coordinates": [
          164.66480140325612,
          -0.009645861590633069
        ]
      }
    },
    {
      "type": "Feature",
      "properties": {
        "norad_id": 54243,
        "name": "GALAXY 31 (G-31)",
        "group": "intelsat",
        "lat": 0.0016779357422635039,
        "lon": 172.58511077793807,
        "alt_km": 35787.91343638065,
        "timestamp": "2025-12-16T13:52:37.197705+00:00",
        "meta_object_name": "GALAXY 31 (G-31)",
        "meta_object_id": "2022-153A",
        "meta_epoch": "2025-12-15T15:08:47.593824",
        "meta_mean_motion": 1.0027139,
        "meta_eccentricity": 0.00014655,
        "meta_inclination": 0.0143,
        "meta_ra_of_asc_node": 6.9091,
        "meta_arg_of_pericenter": 272.4598,
        "meta_mean_anomaly": 271.3548,
        "meta_ephemeris_type": 0,
        "meta_classification_type": "U",
        "meta_norad_cat_id": 54243,
        "meta_element_set_no": 999,
        "meta_rev_at_epoch": 529,
        "meta_bstar": 0,
        "meta_mean_motion_dot": 0,
        "meta_mean_motion_ddot": 0,
        "tle_line1": "1 54243U 22153A   25349.63110641  .00000000  00000+0  00000+0 0  9994",
        "tle_line2": "2 54243   0.0143   6.9091 0001465 272.4598 271.3548  1.00271390  5295"
      },
      "geometry": {
        "type": "Point",
        "coordinates": [
          172.58511077793807,
          0.0016779357422635039
        ]
      }
    },
    {
      "type": "Feature",
      "properties": {
        "norad_id": 54244,
        "name": "GALAXY 32 (G-32)",
        "group": "intelsat",
        "lat": -0.023336961280346753,
        "lon": -157.41584460625688,
        "alt_km": 35790.49056584118,
        "timestamp": "2025-12-16T13:52:37.197716+00:00",
        "meta_object_name": "GALAXY 32 (G-32)",
        "meta_object_id": "2022-153B",
        "meta_epoch": "2025-12-15T09:31:52.876128",
        "meta_mean_motion": 1.00271814,
        "meta_eccentricity": 0.00025704,
        "meta_inclination": 0.009,
        "meta_ra_of_asc_node": 336.4403,
        "meta_arg_of_pericenter": 340.1311,
        "meta_mean_anomaly": 179.7028,
        "meta_ephemeris_type": 0,
        "meta_classification_type": "U",
        "meta_norad_cat_id": 54244,
        "meta_element_set_no": 999,
        "meta_rev_at_epoch": 1130,
        "meta_bstar": 0,
        "meta_mean_motion_dot": -1.53e-06,
        "meta_mean_motion_ddot": 0,
        "tle_line1": "1 54244U 22153B   25349.39713977 -.00000153  00000+0  00000+0 0  9999",
        "tle_line2": "2 54244   0.0090 336.4403 0002570 340.1311 179.7028  1.00271814 11303"
      },
      "geometry": {
        "type": "Point",
        "coordinates": [
          -157.41584460625688,
          -0.023336961280346753
        ]
      }
    }
  ]
}